TANSAT                  
1 41898U 16081A   26141.24524769  .00000499  00000+0  11433-3 0  9995
2 41898  98.5366 140.7083 0021433  35.4532 324.8086 14.59925589500695
JILIN-1 03              
1 41914U 17002B   26141.27628053  .00009382  00000+0  23056-3 0  9996
2 41914  97.1957 148.7546 0003608 265.6157  94.4678 15.40858301517717
CARTOSAT-2D             
1 41948U 17008A   26141.28654677  .00001615  00000+0  79778-4 0  9995
2 41948  97.4118 201.0910 0003896 350.4135   9.7025 15.19264836513498
CARTOSAT-2E             
1 42767U 17036C   26141.23817453  .00004141  00000+0  19972-3 0  9990
2 42767  97.4282 201.4812 0003962  55.5446 304.6163 15.19245591494054
IRIDIUM 113             
1 42803U 17039A   26141.03063977 -.00000023  00000+0 -15150-4 0  9998
2 42803  86.3960 333.5355 0002184  92.2868 267.8578 14.34217140467296
NORSAT 2                
1 42828U 17042D   26141.19713359  .00007132  00000+0  32122-3 0  9995
2 42828  97.4032 315.0803 0010774 141.2884 218.9126 15.21318660483634
TECHNOSAT               
1 42829U 17042E   26141.25311180  .00002879  00000+0  20768-3 0  9995
2 42829  97.4261 299.9439 0017795 181.9653 178.1507 15.04770673482657
FLYING LAPTOP           
1 42831U 17042G   26141.25406470  .00002414  00000+0  19329-3 0  9991
2 42831  97.4575 297.8458 0017984 212.4716 147.5404 15.00947557482419
WNISAT 1R               
1 42835U 17042L   26141.23870901  .00001658  00000+0  13212-3 0  9991
2 42835  97.4810 298.3302 0009594 252.7672 107.2503 15.01623151482465
LEMUR-2-GREENBERG       
1 42837U 17042N   26141.02604003  .00010932  00000+0  37383-3 0  9998
2 42837  97.3815 321.7969 0010431 102.5226 257.7183 15.30387704484235
LEMUR-2-FURIAUS         
1 42840U 17042R   26141.00011453  .00011824  00000+0  41878-3 0  9996
2 42840  97.3770 319.7890 0008405 152.8489 207.3192 15.29240997484057
CORVUS BC2              
1 42846U 17042X   26141.02322372  .00001545  00000+0  10962-3 0  9998
2 42846  97.4041 303.4376 0012631 198.3091 161.7684 15.06095262482970
CORVUS BC1              
1 42847U 17042Y   26141.02092230  .00001730  00000+0  12173-3 0  9998
2 42847  97.4072 304.2315 0012093 174.4285 185.7080 15.06265921483001
VRSS-2                  
1 42954U 17060A   26141.29992039  .00000302  00000+0  45156-4 0  9994
2 42954  97.6525 180.2360 0016814 182.5557 177.5573 14.81143563464479
MOHAMMED VI-A           
1 43005U 17070A   26141.31735616  .00000711  00000+0  10787-3 0  9997
2 43005  97.9559 214.0167 0001629 105.1726 254.9664 14.77099699460017
FENGYUN 3D              
1 43010U 17072A   26141.22593093  .00000001  00000+0  22200-4 0  9992
2 43010  99.0119 115.1644 0002453 106.9205 253.2239 14.19732852441162
NOAA 20 (JPSS-1)        
1 43013U 17073A   26141.21646093  .00000052  00000+0  45436-4 0  9996
2 43013  98.7764  80.9203 0001233  42.6389 317.4882 14.19506117440643
MAKERSAT 0              
1 43016U 17073D   26141.13093424  .00017330  00000+0  48303-3 0  9996
2 43016  97.4655  23.4574 0110118  10.4350 349.9139 15.30862288462320
RADFXSAT (FOX-1B)       
1 43017U 17073E   26141.14920854  .00006846  00000+0  30040-3 0  9993
2 43017  97.4737   8.9239 0153707  62.3580 299.3158 15.12168292461300
JILIN-1 04              
1 43022U 17074A   26141.28664092  .00009191  00000+0  21997-3 0  9991
2 43022  97.4832 250.2019 0002569 296.1855  63.9128 15.41684365470129
JILIN-1 05              
1 43023U 17074B   26141.23977020  .00005755  00000+0  18072-3 0  9997
2 43023  97.4841 247.0430 0004288 338.2759  21.8301 15.33410210469875
JILIN-1 06              
1 43024U 17074C   26141.27459938  .00004450  00000+0  14052-3 0  9990
2 43024  97.4768 244.1188 0006226 347.4005  12.7080 15.33358357469711
IRIDIUM 116             
1 43072U 17083C   26141.28434314 -.00000020  00000+0 -14325-4 0  9990
2 43072  86.3954 333.2541 0001841  81.9025 278.2380 14.34218104440313
IRIDIUM 130             
1 43073U 17083D   26141.04332245  .00000009  00000+0 -38401-5 0  9993
2 43073  86.3962 333.6276 0002067  81.9141 278.2289 14.34217819440222
LKW-2                   
1 43080U 17084A   26141.27717407  .00004005  00000+0  15873-3 0  9999
2 43080  97.1205 182.3362 0002021  36.4640 323.6736 15.25939561467580
SUPERVIEW-1 03          
1 43099U 18002A   26141.24381035  .00010087  00000+0  25966-3 0  9992
2 43099  97.3126 226.1423 0046123 277.7924  81.8086 15.38324047464225
LKW-3                   
1 43146U 18006A   26141.26063498  .00005231  00000+0  15827-3 0  9991
2 43146  97.6593 300.7989 0003940  59.1949 300.9680 15.34656967464583
