OBJECT_NAME,OBJECT_ID,EPOCH,MEAN_MOTION,ECCENTRICITY,INCLINATION,RA_OF_ASC_NODE,ARG_OF_PERICENTER,MEAN_ANOMALY,EPHEMERIS_TYPE,CLASSIFICATION_TYPE,NORAD_CAT_ID,ELEMENT_SET_NO,REV_AT_EPOCH,BSTAR,MEAN_MOTION_DOT,MEAN_MOTION_DDOT
TANSAT,2016-081A,2026-05-21T05:53:09.400416,14.59925589,.00214331,98.5366,140.7083,35.4532,324.8086,0,U,41898,999,50069,.11432731E-3,.499E-5,0
JILIN-1 03,2017-002B,2026-05-21T06:37:50.637792,15.40858301,.00036083,97.1957,148.7546,265.6157,94.4678,0,U,41914,999,51771,.23055577E-3,.9382E-4,0
CARTOSAT-2D,2017-008A,2026-05-21T06:52:37.640928,15.19264836,.00038963,97.4118,201.0910,350.4135,9.7025,0,U,41948,999,51349,.79778068E-4,.1615E-4,0
CARTOSAT-2E,2017-036C,2026-05-21T05:42:58.279392,15.19245591,.0003962,97.4282,201.4812,55.5446,304.6163,0,U,42767,999,49405,.19971751E-3,.4141E-4,0
IRIDIUM 113,2017-039A,2026-05-21T00:44:07.276128,14.34217140,.00021847,86.3960,333.5355,92.2868,267.8578,0,U,42803,999,46729,-.15150088E-4,-.23E-6,0
NORSAT 2,2017-042D,2026-05-21T04:43:52.342176,15.21318660,.00107741,97.4032,315.0803,141.2884,218.9126,0,U,42828,999,48363,.32121798E-3,.7132E-4,0
TECHNOSAT,2017-042E,2026-05-21T06:04:28.859520,15.04770673,.00177955,97.4261,299.9439,181.9653,178.1507,0,U,42829,999,48265,.20767995E-3,.2879E-4,0
FLYING LAPTOP,2017-042G,2026-05-21T06:05:51.190080,15.00947557,.00179844,97.4575,297.8458,212.4716,147.5404,0,U,42831,999,48241,.19328915E-3,.2414E-4,0
WNISAT 1R,2017-042L,2026-05-21T05:43:44.458464,15.01623151,.00095944,97.4810,298.3302,252.7672,107.2503,0,U,42835,999,48246,.13212184E-3,.1658E-4,0
LEMUR-2-GREENBERG,2017-042N,2026-05-21T00:37:29.858592,15.30387704,.00104315,97.3815,321.7969,102.5226,257.7183,0,U,42837,999,48423,.37383403E-3,.10932E-3,0
LEMUR-2-FURIAUS,2017-042R,2026-05-21T00:00:09.895392,15.29240997,.0008405,97.3770,319.7890,152.8489,207.3192,0,U,42840,999,48405,.41877719E-3,.11824E-3,0
CORVUS BC2,2017-042X,2026-05-21T00:33:26.529408,15.06095262,.0012631,97.4041,303.4376,198.3091,161.7684,0,U,42846,999,48297,.10961638E-3,.1545E-4,0
CORVUS BC1,2017-042Y,2026-05-21T00:30:07.686720,15.06265921,.00120939,97.4072,304.2315,174.4285,185.7080,0,U,42847,999,48300,.12172776E-3,.173E-4,0
VRSS-2,2017-060A,2026-05-21T07:11:53.121696,14.81143563,.00168148,97.6525,180.2360,182.5557,177.5573,0,U,42954,999,46447,.4515611E-4,.302E-5,0
MOHAMMED VI-A,2017-070A,2026-05-21T07:36:59.572224,14.77099699,.00016291,97.9559,214.0167,105.1726,254.9664,0,U,43005,999,46001,.10786669E-3,.711E-5,0
FENGYUN 3D,2017-072A,2026-05-21T05:25:20.432352,14.19732852,.00024536,99.0119,115.1644,106.9205,253.2239,0,U,43010,999,44116,.22200297E-4,.1E-7,0
NOAA 20 (JPSS-1),2017-073A,2026-05-21T05:11:42.224352,14.19506117,.00012339,98.7764,80.9203,42.6389,317.4882,0,U,43013,999,44064,.45435686E-4,.52E-6,0
MAKERSAT 0,2017-073D,2026-05-21T03:08:32.718336,15.30862288,.01101185,97.4655,23.4574,10.4350,349.9139,0,U,43016,999,46232,.4830282E-3,.1733E-3,0
RADFXSAT (FOX-1B),2017-073E,2026-05-21T03:34:51.617856,15.12168292,.01537073,97.4737,8.9239,62.3580,299.3158,0,U,43017,999,46130,.30040243E-3,.6846E-4,0
JILIN-1 04,2017-074A,2026-05-21T06:52:45.775488,15.41684365,.00025693,97.4832,250.2019,296.1855,63.9128,0,U,43022,999,47012,.21996864E-3,.9191E-4,0
JILIN-1 05,2017-074B,2026-05-21T05:45:16.145280,15.33410210,.00042881,97.4841,247.0430,338.2759,21.8301,0,U,43023,999,46987,.18072405E-3,.5755E-4,0
JILIN-1 06,2017-074C,2026-05-21T06:35:25.386432,15.33358357,.00062267,97.4768,244.1188,347.4005,12.7080,0,U,43024,999,46971,.14051961E-3,.445E-4,0
IRIDIUM 116,2017-083C,2026-05-21T06:49:27.247296,14.34218104,.00018417,86.3954,333.2541,81.9025,278.2380,0,U,43072,999,44031,-.14324907E-4,-.2E-6,0
IRIDIUM 130,2017-083D,2026-05-21T01:02:23.059680,14.34217819,.00020679,86.3962,333.6276,81.9141,278.2289,0,U,43073,999,44022,-.3840102E-5,.9E-7,0
LKW-2,2017-084A,2026-05-21T06:39:07.839648,15.25939561,.00020213,97.1205,182.3362,36.4640,323.6736,0,U,43080,999,46758,.1587313E-3,.4005E-4,0
SUPERVIEW-1 03,2018-002A,2026-05-21T05:51:05.214240,15.38324047,.0046123,97.3126,226.1423,277.7924,81.8086,0,U,43099,999,46422,.25966464E-3,.10087E-3,0
LKW-3,2018-006A,2026-05-21T06:15:18.862272,15.34656967,.00039406,97.6593,300.7989,59.1949,300.9680,0,U,43146,999,46458,.15827359E-3,.5231E-4,0
